[{"OBJECT_NAME":"STARLINK-6055","OBJECT_ID":"2023-064V","EPOCH":"2026-03-09T12:55:56.635680","MEAN_MOTION":14.98328608,"ECCENTRICITY":0.00034716,"INCLINATION":69.9993,"RA_OF_ASC_NODE":124.963,"ARG_OF_PERICENTER":272.0623,"MEAN_ANOMALY":88.0138,"EPHEMERIS_TYPE":0,"CLASSIFICATION_TYPE":"U","NORAD_CAT_ID":56467,"ELEMENT_SET_NO":999,"REV_AT_EPOCH":15571,"BSTAR":0.00018471053,"MEAN_MOTION_DOT":2.112e-5,"MEAN_MOTION_DDOT":0},{"OBJECT_NAME":"DEORBITSAIL","OBJECT_ID":"2015-032E","EPOCH":"2026-03-09T13:39:47.460384","MEAN_MOTION":15.02284863,"ECCENTRICITY":0.0012066,"INCLINATION":97.5981,"RA_OF_ASC_NODE":287.3228,"ARG_OF_PERICENTER":211.0438,"MEAN_ANOMALY":149.0075,"EPHEMERIS_TYPE":0,"CLASSIFICATION_TYPE":"U","NORAD_CAT_ID":40719,"ELEMENT_SET_NO":999,"REV_AT_EPOCH":57628,"BSTAR":0.0007398,"MEAN_MOTION_DOT":9.73e-5,"MEAN_MOTION_DDOT":0}]
